SatCatId,ObjectName,LaunchYear,OrbitalPeriod,LaunchMass,StatusCode,Inclination,Status,UcsData,OrbitClassEstimated,LaunchSiteCountry,Owner,UseType,Purpose,LaunchVehicleClass,TLE1,TLE2,MeanMotion,Eccentricity,OrbitClass
58245,STARLINK-30849,2023,95.84,-1.0,+,43.0,Active,0,LEO,USA,USA,Unknown,Unknown,Falcon,1 58245U 23171R   24143.31570066  .00011713  00000+0  88019-3 0  9991,2 58245  43.0037 252.2166 0001653 283.4585  76.6073 15.02557194 30996,15.02557194,0.0001653,LEO
58246,STARLINK-30886,2023,95.84,-1.0,+,43.0,Active,0,LEO,USA,USA,Unknown,Unknown,Falcon,1 58246U 23171S   24142.65757781 -.00011334  00000+0 -82535-3 0  9997,2 58246  43.0037 255.8727 0002107 274.1799  85.8802 15.02531664 30893,15.02531664,0.0002107,LEO
58247,STARLINK-30850,2023,95.84,-1.0,+,43.0,Active,0,LEO,USA,USA,Unknown,Unknown,Falcon,1 58247U 23171T   24142.72072987  .00021206  00000+0  15795-2 0  9994,2 58247  43.0027 255.4891 0001391 244.3330 115.7369 15.02550791 30764,15.02550791,0.0001391,LEO
58248,STARLINK-30823,2023,95.84,-1.0,+,43.01,Active,0,LEO,USA,USA,Unknown,Unknown,Falcon,1 58248U 23171U   24142.79387574  .00005068  00000+0  38995-3 0  9999,2 58248  43.0052 255.1813 0003200 302.6375  57.4158 15.02539728 30914,15.02539728,0.00032,LEO
58249,STARLINK-30873,2023,95.84,-1.0,+,43.0,Active,0,LEO,USA,USA,Unknown,Unknown,Falcon,1 58249U 23171V   24143.46197402  .00000010  00000+0  15806-4 0  9993,2 58249  43.0020 251.5898 0001297 295.1129  64.9578 15.02547658 31012,15.02547658,0.0001297,LEO
58250,STARLINK-30808,2023,95.83,-1.0,+,43.01,Active,0,LEO,USA,USA,Unknown,Unknown,Falcon,1 58250U 23171W   24143.55655911  .00001514  00000+0  12716-3 0  9995,2 58250  43.0028 253.1169 0001791 258.8252 101.2389 15.02527221 31001,15.02527221,0.0001791,LEO
58251,STARLINK-30881,2023,95.84,-1.0,+,43.0,Active,0,LEO,USA,USA,Unknown,Unknown,Falcon,1 58251U 23171X   24143.50858753  .00006459  00000+0  49279-3 0  9997,2 58251  43.0019 251.8519 0001296 278.2504  81.8191 15.02535234 31010,15.02535234,0.0001296,LEO
58252,STARLINK-30883,2023,95.84,-1.0,+,43.0,Active,0,LEO,USA,USA,Unknown,Unknown,Falcon,1 58252U 23171Y   24142.60778064  .00021641  00000+0  16120-2 0  9992,2 58252  43.0032 256.3566 0001776 298.0149  62.0514 15.02538942 30889,15.02538942,0.0001776,LEO
58253,CHINASAT 6E (ZX 6E),2023,1436.07,-1.0,+,0.05,Active,0,GSO,PRC,China,Unknown,Unknown,Unknown,1 58253U 23172A   24143.59556330 -.00000340  00000+0  00000+0 0  9994,2 58253   0.0479 103.7168 0003892 337.5105 129.4001  1.00272717  2081,1.00272717,0.0003892,GEO
58256,CONNECTA T3.1,2023,94.82,-1.0,+,97.45,Active,0,LEO,USA,Turkey,Unknown,Unknown,Unknown,1 58256U 23174A   24143.14073904  .00017156  00000+0  82979-3 0  9992,2 58256  97.4551 217.8409 0008342 337.9317  22.1557 15.18636848 29744,15.18636848,0.0008342,LEO
58257,MANTIS,2023,94.65,-1.0,+,97.46,Active,0,LEO,USA,UK,Unknown,Unknown,Unknown,1 58257U 23174B   24143.54125173  .00027017  00000+0  12025-2 0  9994,2 58257  97.4565 218.5693 0009986 340.2201  19.8646 15.21397406 29826,15.21397406,0.0009986,LEO
58258,ORBASTRO-PC-1,2023,94.91,-1.0,+,97.45,Active,0,LEO,USA,UK,Unknown,Unknown,Unknown,1 58258U 23174C   24143.56001383  .00013273  00000+0  66919-3 0  9994,2 58258  97.4533 218.0198 0011021 345.0141  15.0764 15.17220441 29790,15.17220441,0.0011021,LEO
58259,LEMUR-2-BASS,2023,94.89,-1.0,+,97.45,Active,0,LEO,USA,USA,Unknown,Unknown,Unknown,1 58259U 23174D   24143.14312491  .00014402  00000+0  71878-3 0  9999,2 58259  97.4545 217.6726 0010917 343.7401  16.3481 15.17559232 29730,15.17559232,0.0010917,LEO
58260,LEMUR-2-DILIGHTFUL,2023,94.67,-1.0,+,97.46,Active,0,LEO,USA,USA,Unknown,Unknown,Unknown,1 58260U 23174E   24143.15978050  .00022669  00000+0  10171-2 0  9993,2 58260  97.4602 218.2635 0009702 336.7126  23.3669 15.21161426 29766,15.21161426,0.0009702,LEO
58261,VERONIKA,2023,94.73,-1.0,+,97.46,Active,0,LEO,USA,Czech Republic,Unknown,Unknown,Unknown,1 58261U 23174F   24143.33431844  .00022982  00000+0  10609-2 0  9993,2 58261  97.4617 218.3748 0011150 337.1050  22.9687 15.20166541 29789,15.20166541,0.001115,LEO
58262,PLATERO,2023,94.73,-1.0,+,97.46,Active,0,LEO,USA,Spain,Unknown,Unknown,Unknown,1 58262U 23174G   24143.15225953  .00020719  00000+0  95958-3 0  9993,2 58262  97.4609 218.1184 0010781 334.9935  25.0776 15.20078532 29751,15.20078532,0.0010781,LEO
58263,LEMUR-2-GOOD-VIBES,2023,94.67,-1.0,+,97.45,Active,0,LEO,USA,USA,Unknown,Unknown,Unknown,1 58263U 23174H   24143.16069213  .00012416  00000+0  56015-3 0  9996,2 58263  97.4535 218.1190 0008980 342.8084  17.2846 15.21112954 29768,15.21112954,0.000898,LEO
58264,BRO-11,2023,94.93,-1.0,+,97.47,Active,0,LEO,USA,France,Unknown,Unknown,Unknown,1 58264U 23174J   24143.38666596  .00005006  00000+0  25673-3 0  9991,2 58264  97.4651 218.2193 0012100 345.6951  14.3938 15.16939462 29771,15.16939462,0.00121,LEO
58265,PEARL 1H,2023,94.89,-1.0,+,97.45,Active,0,LEO,USA,Taiwan,Unknown,Unknown,Unknown,1 58265U 23174K   24143.56701456  .00014238  00000+0  71094-3 0  9992,2 58265  97.4505 217.9427 0008995 342.7800  17.3127 15.17561945 29797,15.17561945,0.0008995,LEO
58266,DJIBOUTI-1A,2023,94.73,-1.0,+,97.46,Active,0,LEO,USA,Republic of Djibouti,Unknown,Unknown,Unknown,1 58266U 23174L   24143.44909150  .00022294  00000+0  10275-2 0  9995,2 58266  97.4638 218.5825 0011189 332.4653  27.5988 15.20228620 29809,15.2022862,0.0011189,LEO
58267,LEMUR-2-SANITA-VETRA,2023,94.69,-1.0,+,97.45,Active,0,LEO,USA,USA,Unknown,Unknown,Unknown,1 58267U 23174M   24143.15627220  .00032304  00000+0  14616-2 0  9995,2 58267  97.4531 218.0890 0008803 338.0627  22.0230 15.20806078 29765,15.20806078,0.0008803,LEO
58268,CONNECTA T3.2,2023,94.82,-1.0,+,97.46,Active,0,LEO,USA,Turkey,Unknown,Unknown,Unknown,1 58268U 23174N   24143.13768208  .00018038  00000+0  87147-3 0  9994,2 58268  97.4568 217.8936 0009982 343.9375  16.1541 15.18651883 29744,15.18651883,0.0009982,LEO
58269,IRIS-C2,2023,94.71,-1.0,+,97.46,Active,0,LEO,USA,Taiwan,Unknown,Unknown,Unknown,1 58269U 23174P   24143.56125597  .00022482  00000+0  10306-2 0  9990,2 58269  97.4609 218.6719 0010034 330.5424  29.5244 15.20423586 29823,15.20423586,0.0010034,LEO
58270,FLOCK 4Q-1,2023,94.78,-1.0,+,97.46,Active,0,LEO,USA,USA,Unknown,Unknown,Unknown,1 58270U 23174Q   24143.20845892  .00012560  00000+0  59701-3 0  9999,2 58270  97.4605 218.1997 0009902 338.7719  21.3104 15.19301220 29769,15.1930122,0.0009902,LEO
58271,FLOCK 4Q-16,2023,94.8,-1.0,+,97.46,Active,0,LEO,USA,USA,Unknown,Unknown,Unknown,1 58271U 23174R   24143.49004702  .00012250  00000+0  58606-3 0  9997,2 58271  97.4570 218.3523 0009840 337.9444  22.1366 15.19083894 29803,15.19083894,0.000984,LEO
58272,TIGER-6,2023,94.8,-1.0,+,97.46,Active,0,LEO,USA,Rwanda,Unknown,Unknown,Unknown,1 58272U 23174S   24143.16425626  .00016610  00000+0  79644-3 0  9993,2 58272  97.4578 218.0336 0007606 333.6203  26.4643 15.18950130 29759,15.1895013,0.0007606,LEO
58273,FLOCK 4Q-11,2023,94.79,-1.0,+,97.46,Active,0,LEO,USA,USA,Unknown,Unknown,Unknown,1 58273U 23174T   24143.15489289  .00012755  00000+0  60952-3 0  9996,2 58273  97.4595 218.0963 0009642 339.1746  20.9094 15.19114644 29752,15.19114644,0.0009642,LEO
58274,FLOCK 4Q-36,2023,94.77,-1.0,+,97.46,Active,0,LEO,USA,USA,Unknown,Unknown,Unknown,1 58274U 23174U   24143.50704330  .00013895  00000+0  65591-3 0  9993,2 58274  97.4599 218.5669 0009008 331.0872  28.9863 15.19524268 29818,15.19524268,0.0009008,LEO
58275,FLOCK 4Q-12,2023,94.75,-1.0,+,97.46,Active,0,LEO,USA,USA,Unknown,Unknown,Unknown,1 58275U 23174V   24143.16653443  .00017415  00000+0  81351-3 0  9998,2 58275  97.4556 218.1486 0008605 337.8967  22.1896 15.19837908 29760,15.19837908,0.0008605,LEO
58276,GENMAT-1,2023,94.99,-1.0,+,97.45,Active,0,LEO,USA,USA,Unknown,Unknown,Unknown,1 58276U 23174W   24143.18945124  .00006610  00000+0  34743-3 0  9999,2 58276  97.4513 217.5400 0009065 338.2789  21.8058 15.15979442 29730,15.15979442,0.0009065,LEO
58277,TIGER-5,2023,94.81,-1.0,+,97.46,Active,0,LEO,USA,Rwanda,Unknown,Unknown,Unknown,1 58277U 23174X   24143.15866484  .00015504  00000+0  74539-3 0  9997,2 58277  97.4571 218.0254 0007646 330.0443  30.0352 15.18872344 29755,15.18872344,0.0007646,LEO
58278,FLOCK 4Q-19,2023,94.77,-1.0,+,97.46,Active,0,LEO,USA,USA,Unknown,Unknown,Unknown,1 58278U 23174Y   24143.57734251  .00013135  00000+0  61926-3 0  9994,2 58278  97.4548 218.4875 0008436 333.3684  26.7116 15.19584203 29827,15.19584203,0.0008436,LEO
58279,FLOCK 4Q-8,2023,94.77,-1.0,+,97.46,Active,0,LEO,USA,USA,Unknown,Unknown,Unknown,1 58279U 23174Z   24143.20139726  .00013054  00000+0  61734-3 0  9998,2 58279  97.4625 218.2539 0010055 336.3499  23.7272 15.19465661 29765,15.19465661,0.0010055,LEO
58280,FLOCK 4Q-28,2023,94.76,-1.0,+,97.46,Active,0,LEO,USA,USA,Unknown,Unknown,Unknown,1 58280U 23174AA  24143.18742634  .00013668  00000+0  64373-3 0  9998,2 58280  97.4605 218.2338 0008939 336.1004  23.9815 15.19607105 29766,15.19607105,0.0008939,LEO
58281,AETHER-1,2023,94.71,-1.0,+,97.46,Active,0,LEO,USA,Canada,Unknown,Unknown,Unknown,1 58281U 23174AB  24143.13232736  .00008738  00000+0  40291-3 0  9996,2 58281  97.4592 218.2670 0008154 326.4991  33.5728 15.20464639 29762,15.20464639,0.0008154,LEO
58282,FLOCK 4Q-27,2023,94.78,-1.0,+,97.46,Active,0,LEO,USA,USA,Unknown,Unknown,Unknown,1 58282U 23174AC  24143.57767690  .00013032  00000+0  61758-3 0  9991,2 58282  97.4552 218.4987 0008664 329.5588  30.5143 15.19405274 29827,15.19405274,0.0008664,LEO
58283,FLOCK 4Q-17,2023,94.76,-1.0,+,97.45,Active,0,LEO,USA,USA,Unknown,Unknown,Unknown,1 58283U 23174AD  24143.16315927  .00014656  00000+0  68785-3 0  9999,2 58283  97.4542 218.1068 0008599 326.4032  33.6656 15.19713533 29767,15.19713533,0.0008599,LEO
58284,FLOCK 4Q-26,2023,94.76,-1.0,+,97.46,Active,0,LEO,USA,USA,Unknown,Unknown,Unknown,1 58284U 23174AE  24143.16771731  .00013990  00000+0  65829-3 0  9995,2 58284  97.4606 218.2718 0009350 332.9977  27.0771 15.19630173 29761,15.19630173,0.000935,LEO
